{
  "type": "FeatureCollection",
  "features": [
    {
      "type": "Feature",
      "properties": {
        "norad_id": 44873,
        "name": "CSG-1",
        "group": "resource",
        "lat": -46.85554173992306,
        "lon": -24.865688888900866,
        "alt_km": 630.157072392155,
        "timestamp": "2025-12-08T05:48:08.705377+00:00",
        "meta_object_name": "CSG-1",
        "meta_object_id": "2019-092A",
        "meta_epoch": "2025-12-07T22:17:55.734720",
        "meta_mean_motion": 14.82153426,
        "meta_eccentricity": 0.00014677,
        "meta_inclination": 97.8812,
        "meta_ra_of_asc_node": 163.3257,
        "meta_arg_of_pericenter": 86.2886,
        "meta_mean_anomaly": 273.8495,
        "meta_ephemeris_type": 0,
        "meta_classification_type": "U",
        "meta_norad_cat_id": 44873,
        "meta_element_set_no": 999,
        "meta_rev_at_epoch": 32314,
        "meta_bstar": 0.00013761284,
        "meta_mean_motion_dot": 1.043e-05,
        "meta_mean_motion_ddot": 0,
        "tle_line1": "1 44873U 19092A   25341.92911730  .00001043  00000+0  13761-3 0  9992",
        "tle_line2": "2 44873  97.8812 163.3257 0001467  86.2886 273.8495 14.82153426323143"
      },
      "geometry": {
        "type": "Point",
        "coordinates": [
          -24.865688888900866,
          -46.85554173992306
        ]
      }
    },
    {
      "type": "Feature",
      "properties": {
        "norad_id": 46277,
        "name": "NEMO-HD",
        "group": "resource",
        "lat": 12.712229029754495,
        "lon": -136.9635167381515,
        "alt_km": 447.29021280032794,
        "timestamp": "2025-12-08T05:48:08.705388+00:00",
        "meta_object_name": "NEMO-HD",
        "meta_object_id": "2020-061F",
        "meta_epoch": "2025-12-07T21:16:59.377440",
        "meta_mean_motion": 15.40177443,
        "meta_eccentricity": 0.00021391,
        "meta_inclination": 97.2213,
        "meta_ra_of_asc_node": 41.047,
        "meta_arg_of_pericenter": 61.987,
        "meta_mean_anomaly": 298.1593,
        "meta_ephemeris_type": 0,
        "meta_classification_type": "U",
        "meta_norad_cat_id": 46277,
        "meta_element_set_no": 999,
        "meta_rev_at_epoch": 29249,
        "meta_bstar": 0.00032814317,
        "meta_mean_motion_dot": 0.00013094,
        "meta_mean_motion_ddot": 0,
        "tle_line1": "1 46277U 20061F   25341.88679835  .00013094  00000+0  32814-3 0  9991",
        "tle_line2": "2 46277  97.2213  41.0470 0002139  61.9870 298.1593 15.40177443292493"
      },
      "geometry": {
        "type": "Point",
        "coordinates": [
          -136.9635167381515,
          12.712229029754495
        ]
      }
    },
    {
      "type": "Feature",
      "properties": {
        "norad_id": 46984,
        "name": "SENTINEL-6A",
        "group": "resource",
        "lat": -51.89980902743182,
        "lon": 26.19826863296799,
        "alt_km": 1338.5725203327165,
        "timestamp": "2025-12-08T05:48:08.705398+00:00",
        "meta_object_name": "SENTINEL-6A",
        "meta_object_id": "2020-086A",
        "meta_epoch": "2025-12-07T21:03:39.186432",
        "meta_mean_motion": 12.8093034,
        "meta_eccentricity": 0.00077406,
        "meta_inclination": 66.0392,
        "meta_ra_of_asc_node": 172.4073,
        "meta_arg_of_pericenter": 269.1959,
        "meta_mean_anomaly": 90.8169,
        "meta_ephemeris_type": 0,
        "meta_classification_type": "U",
        "meta_norad_cat_id": 46984,
        "meta_element_set_no": 999,
        "meta_rev_at_epoch": 23582,
        "meta_bstar": 2.2683457e-05,
        "meta_mean_motion_dot": -5.6e-07,
        "meta_mean_motion_ddot": 0,
        "tle_line1": "1 46984U 20086A   25341.87753688 -.00000056  00000+0  22683-4 0  9990",
        "tle_line2": "2 46984  66.0392 172.4073 0007740 269.1959  90.8169 12.80930340235825"
      },
      "geometry": {
        "type": "Point",
        "coordinates": [
          26.19826863296799,
          -51.89980902743182
        ]
      }
    },
    {
      "type": "Feature",
      "properties": {
        "norad_id": 48079,
        "name": "GAOFEN-12 02",
        "group": "resource",
        "lat": 27.849410957079613,
        "lon": 160.5229725006327,
        "alt_km": 624.2811351012897,
        "timestamp": "2025-12-08T05:48:08.705408+00:00",
        "meta_object_name": "GAOFEN-12 02",
        "meta_object_id": "2021-026A",
        "meta_epoch": "2025-12-07T22:37:55.420320",
        "meta_mean_motion": 14.80665836,
        "meta_eccentricity": 0.00034276,
        "meta_inclination": 97.9849,
        "meta_ra_of_asc_node": 335.9726,
        "meta_arg_of_pericenter": 110.5673,
        "meta_mean_anomaly": 249.5907,
        "meta_ephemeris_type": 0,
        "meta_classification_type": "U",
        "meta_norad_cat_id": 48079,
        "meta_element_set_no": 999,
        "meta_rev_at_epoch": 25346,
        "meta_bstar": 0.00012013497,
        "meta_mean_motion_dot": 8.7e-06,
        "meta_mean_motion_ddot": 0,
        "tle_line1": "1 48079U 21026A   25341.94300255  .00000870  00000+0  12013-3 0  9996",
        "tle_line2": "2 48079  97.9849 335.9726 0003427 110.5673 249.5907 14.80665836253463"
      },
      "geometry": {
        "type": "Point",
        "coordinates": [
          160.5229725006327,
          27.849410957079613
        ]
      }
    },
    {
      "type": "Feature",
      "properties": {
        "norad_id": 48268,
        "name": "PLEIADES NEO 3",
        "group": "resource",
        "lat": -22.433489423885675,
        "lon": -128.5370884645105,
        "alt_km": 629.7709795148212,
        "timestamp": "2025-12-08T05:48:08.705418+00:00",
        "meta_object_name": "PLEIADES NEO 3",
        "meta_object_id": "2021-034A",
        "meta_epoch": "2025-12-07T22:24:29.096640",
        "meta_mean_motion": 14.8167039,
        "meta_eccentricity": 0.00013314,
        "meta_inclination": 97.8949,
        "meta_ra_of_asc_node": 54.4435,
        "meta_arg_of_pericenter": 95.2468,
        "meta_mean_anomaly": 264.8897,
        "meta_ephemeris_type": 0,
        "meta_classification_type": "U",
        "meta_norad_cat_id": 48268,
        "meta_element_set_no": 999,
        "meta_rev_at_epoch": 24933,
        "meta_bstar": 2.3570299e-05,
        "meta_mean_motion_dot": 1.33e-06,
        "meta_mean_motion_ddot": 0,
        "tle_line1": "1 48268U 21034A   25341.93367010  .00000133  00000+0  23570-4 0  9999",
        "tle_line2": "2 48268  97.8949  54.4435 0001331  95.2468 264.8897 14.81670390249337"
      },
      "geometry": {
        "type": "Point",
        "coordinates": [
          -128.5370884645105,
          -22.433489423885675
        ]
      }
    },
    {
      "type": "Feature",
      "properties": {
        "norad_id": 49070,
        "name": "PLEIADES NEO 4",
        "group": "resource",
        "lat": 22.248791487121856,
        "lon": 51.48913489530209,
        "alt_km": 623.510884768576,
        "timestamp": "2025-12-08T05:48:08.705428+00:00",
        "meta_object_name": "PLEIADES NEO 4",
        "meta_object_id": "2021-073E",
        "meta_epoch": "2025-12-07T21:35:50.634240",
        "meta_mean_motion": 14.8167122,
        "meta_eccentricity": 0.00012813,
        "meta_inclination": 97.8951,
        "meta_ra_of_asc_node": 54.4065,
        "meta_arg_of_pericenter": 95.3106,
        "meta_mean_anomaly": 264.8253,
        "meta_ephemeris_type": 0,
        "meta_classification_type": "U",
        "meta_norad_cat_id": 49070,
        "meta_element_set_no": 999,
        "meta_rev_at_epoch": 23304,
        "meta_bstar": 7.2098823e-05,
        "meta_mean_motion_dot": 5.15e-06,
        "meta_mean_motion_ddot": 0,
        "tle_line1": "1 49070U 21073E   25341.89989160  .00000515  00000+0  72099-4 0  9999",
        "tle_line2": "2 49070  97.8951  54.4065 0001281  95.3106 264.8253 14.81671220233045"
      },
      "geometry": {
        "type": "Point",
        "coordinates": [
          51.48913489530209,
          22.248791487121856
        ]
      }
    },
    {
      "type": "Feature",
      "properties": {
        "norad_id": 49260,
        "name": "LANDSAT 9",
        "group": "resource",
        "lat": 74.04020736016615,
        "lon": 20.097990061285657,
        "alt_km": 694.6437516991282,
        "timestamp": "2025-12-08T05:48:08.705439+00:00",
        "meta_object_name": "LANDSAT 9",
        "meta_object_id": "2021-088A",
        "meta_epoch": "2025-12-07T22:51:41.425056",
        "meta_mean_motion": 14.5712237,
        "meta_eccentricity": 0.00011148,
        "meta_inclination": 98.2099,
        "meta_ra_of_asc_node": 50.1329,
        "meta_arg_of_pericenter": 94.5516,
        "meta_mean_anomaly": 265.581,
        "meta_ephemeris_type": 0,
        "meta_classification_type": "U",
        "meta_norad_cat_id": 49260,
        "meta_element_set_no": 999,
        "meta_rev_at_epoch": 22315,
        "meta_bstar": 0.00017506336,
        "meta_mean_motion_dot": 7.44e-06,
        "meta_mean_motion_ddot": 0,
        "tle_line1": "1 49260U 21088A   25341.95256279  .00000744  00000+0  17506-3 0  9996",
        "tle_line2": "2 49260  98.2099  50.1329 0001114  94.5516 265.5810 14.57122370223159"
      },
      "geometry": {
        "type": "Point",
        "coordinates": [
          20.097990061285657,
          74.04020736016615
        ]
      }
    }
  ]
}